{
"type": "FeatureCollection",
"name": "rr",
"crs": { "type": "name", "properties": { "name": "urn:ogc:def:crs:OGC:1.3:CRS84" } },
"features": [
{ "type": "Feature", "properties": { "id": null, "df": null, "dd": null }, "geometry": { "type": "MultiPolygon", "coordinates": [ [ [ [ 34.446370138241868, -15.932869193624256 ], [ 34.501150292934206, -15.955283141210501 ], [ 34.54077848994568, -15.998983126593428 ], [ 34.620034883968621, -16.043793698994076 ], [ 34.678311644279617, -16.052754605157752 ], [ 34.694629137166693, -16.068435220523732 ], [ 34.736588404590606, -16.090833955262877 ], [ 34.782044277633183, -16.104271984021388 ], [ 34.843817643562836, -16.098672915910278 ], [ 34.881114770161872, -16.088594195388996 ], [ 34.892770122224071, -16.088594195388996 ], [ 34.905591009492476, -16.095313399239672 ], [ 34.91608082634847, -16.098672915910278 ], [ 34.92540510799823, -16.113230164406634 ], [ 34.931232784029326, -16.124427320899898 ], [ 34.941722600885306, -16.135623844818149 ], [ 34.947550276916409, -16.143461034968983 ], [ 34.969695445834581, -16.151297914831702 ], [ 34.974357586659458, -16.161373447076933 ], [ 34.986012938721657, -16.169209617205357 ], [ 34.989509544340322, -16.178164859716524 ], [ 35.001164896402514, -16.191596962075149 ], [ 35.006992572433617, -16.192716262677628 ], [ 35.018647924495809, -16.207266592550969 ], [ 35.023310065320693, -16.219577571348054 ], [ 35.034965417382885, -16.231887780704238 ], [ 35.050117375063749, -16.255386950963956 ], [ 35.051282910269975, -16.263219383487129 ], [ 35.057110586301071, -16.271051503672062 ], [ 35.055945051094845, -16.292308540102347 ], [ 35.051282910269975, -16.304614192150414 ], [ 35.031468811764228, -16.330341693301222 ], [ 35.012820248464713, -16.332578707441236 ], [ 34.997668290783849, -16.340408055360278 ], [ 34.981350797896781, -16.343763394173148 ], [ 34.962702234597266, -16.350473898925522 ], [ 34.939391530472854, -16.352710682609825 ], [ 34.91608082634847, -16.349355497476175 ], [ 34.900928868667613, -16.348237089622558 ], [ 34.885776910986742, -16.346000254704066 ], [ 34.871790488512119, -16.34152650803291 ], [ 34.864797277274796, -16.334815695987537 ], [ 34.860135136449912, -16.322511942305567 ], [ 34.856638530831255, -16.313563271765759 ], [ 34.844983178769063, -16.312444659181068 ], [ 34.829831221088199, -16.318037658182586 ], [ 34.825169080263315, -16.328104653570591 ], [ 34.805354981757588, -16.333697204913797 ], [ 34.778547672014533, -16.339289596286488 ], [ 34.752905897477689, -16.340408055360278 ], [ 34.733091798971955, -16.344881827639959 ], [ 34.72027091170353, -16.352710682609825 ], [ 34.679477179485843, -16.352710682609825 ], [ 34.644511123299246, -16.350473898925522 ], [ 34.608379531906429, -16.350473898925522 ], [ 34.58623436298825, -16.340408055360278 ], [ 34.569916870101174, -16.335934180662065 ], [ 34.575744546132277, -16.312444659181068 ], [ 34.564089194070078, -16.30685150039416 ], [ 34.534950813914577, -16.283358489732734 ], [ 34.511640109790186, -16.283358489732734 ], [ 34.489494940872, -16.290071065808515 ], [ 34.449866743860532, -16.278883311384842 ], [ 34.428887110148573, -16.254268006542883 ], [ 34.414900687673935, -16.22405410016751 ], [ 34.414900687673935, -16.212862587356202 ], [ 34.410238546849051, -16.178164859716524 ], [ 34.395086589168194, -16.153536966353421 ], [ 34.409073011642832, -16.134504220903366 ], [ 34.419562828498819, -16.116589377751666 ], [ 34.426556039736134, -16.10987089416512 ], [ 34.431218180561011, -16.085234508230091 ], [ 34.435880321385888, -16.063955170780623 ], [ 34.428887110148573, -16.039313094759542 ], [ 34.412569617261497, -16.030351584110782 ], [ 34.362451603394042, -15.99450151614103 ], [ 34.360120532981597, -15.988899361773663 ], [ 34.347299645713179, -15.968730306806711 ], [ 34.313499124732807, -15.938472915340189 ], [ 34.316995730351465, -15.907090059233168 ], [ 34.326320012001233, -15.904848239066474 ], [ 34.344968575300747, -15.884670733175575 ], [ 34.363617138600254, -15.883549701309462 ], [ 34.374106955456234, -15.883549701309462 ], [ 34.385762307518441, -15.884670733175575 ], [ 34.395086589168194, -15.893638763373035 ], [ 34.412569617261497, -15.89475973905037 ], [ 34.446370138241868, -15.932869193624256 ] ] ] ] } }
]
}
